{
    "links": {
        "self": "http://www.neowsapp.com/rest/v1/neo/3873141?api_key=iIulBulltgU6a56xZRHN4H3l9WmuAYTsLGpBGhQ2"
    },
    "id": "3873141",
    "neo_reference_id": "3873141",
    "name": "(2019 SW8)",
    "designation": "2019 SW8",
    "nasa_jpl_url": "http://ssd.jpl.nasa.gov/sbdb.cgi?sstr=3873141",
    "absolute_magnitude_h": 25.7,
    "estimated_diameter": {
        "kilometers": {
            "estimated_diameter_min": 0.0192555078,
            "estimated_diameter_max": 0.0430566244
        },
        "meters": {
            "estimated_diameter_min": 19.2555078188,
            "estimated_diameter_max": 43.0566244241
        },
        "miles": {
            "estimated_diameter_min": 0.0119648141,
            "estimated_diameter_max": 0.0267541378
        },
        "feet": {
            "estimated_diameter_min": 63.1742402722,
            "estimated_diameter_max": 141.2618956756
        }
    },
    "is_potentially_hazardous_asteroid": false,
    "close_approach_data": [
        {
            "close_approach_date": "1972-06-23",
            "close_approach_date_full": "1972-Jun-23 10:40",
            "epoch_date_close_approach": 78144000000,
            "relative_velocity": {
                "kilometers_per_second": "16.7286624992",
                "kilometers_per_hour": "60223.1849970937",
                "miles_per_hour": "37420.3451444442"
            },
            "miss_distance": {
                "astronomical": "0.3752146035",
                "lunar": "145.9584807615",
                "kilometers": "56131305.476494545",
                "miles": "34878375.891312921"
            },
            "orbiting_body": "Earth"
        },
        {
            "close_approach_date": "2015-06-21",
            "close_approach_date_full": "2015-Jun-21 07:50",
            "epoch_date_close_approach": 1434873000000,
            "relative_velocity": {
                "kilometers_per_second": "18.5666554979",
                "kilometers_per_hour": "66839.9597922607",
                "miles_per_hour": "41531.7516831411"
            },
            "miss_distance": {
                "astronomical": "0.4380167283",
                "lunar": "170.3885073087",
                "kilometers": "65526369.578048721",
                "miles": "40716198.0206095098"
            },
            "orbiting_body": "Earth"
        },
        {
            "close_approach_date": "2017-07-10",
            "close_approach_date_full": "2017-Jul-10 07:44",
            "epoch_date_close_approach": 1499672640000,
            "relative_velocity": {
                "kilometers_per_second": "9.880517755",
                "kilometers_per_hour": "35569.8639180881",
                "miles_per_hour": "22101.7301662142"
            },
            "miss_distance": {
                "astronomical": "0.1469450502",
                "lunar": "57.1616245278",
                "kilometers": "21982666.516963074",
                "miles": "13659395.5790514612"
            },
            "orbiting_body": "Earth"
        },
        {
            "close_approach_date": "2019-09-14",
            "close_approach_date_full": "2019-Sep-14 20:36",
            "epoch_date_close_approach": 1568493360000,
            "relative_velocity": {
                "kilometers_per_second": "6.3945856339",
                "kilometers_per_hour": "23020.5082820192",
                "miles_per_hour": "14304.048604458"
            },
            "miss_distance": {
                "astronomical": "0.0398565587",
                "lunar": "15.5042013343",
                "kilometers": "5962456.287049969",
                "miles": "3704898.5383448122"
            },
            "orbiting_body": "Earth"
        },
        {
            "close_approach_date": "2021-10-13",
            "close_approach_date_full": "2021-Oct-13 16:16",
            "epoch_date_close_approach": 1634141760000,
            "relative_velocity": {
                "kilometers_per_second": "16.2594135249",
                "kilometers_per_hour": "58533.8886895795",
                "miles_per_hour": "36370.6821138112"
            },
            "miss_distance": {
                "astronomical": "0.3564007629",
                "lunar": "138.6398967681",
                "kilometers": "53316794.996215023",
                "miles": "33129520.1743843974"
            },
            "orbiting_body": "Earth"
        }
    ],
    "orbital_data": {
        "orbit_id": "3",
        "orbit_determination_date": "2019-11-10 04:59:30",
        "first_observation_date": "2019-09-29",
        "last_observation_date": "2019-11-03",
        "data_arc_in_days": 35,
        "observations_used": 22,
        "orbit_uncertainty": "7",
        "minimum_orbit_intersection": ".00796104",
        "jupiter_tisserand_invariant": "4.256",
        "epoch_osculation": "2459000.5",
        "eccentricity": ".3708805639050279",
        "semi_major_axis": "1.615252594558642",
        "inclination": "1.277519188130827",
        "ascending_node_longitude": "344.9174740206718",
        "orbital_period": "749.8235870956941",
        "perihelion_distance": "1.016186801439673",
        "perihelion_argument": "344.8122566983696",
        "aphelion_distance": "2.21431838767761",
        "perihelion_time": "2458723.315731277113",
        "mean_anomaly": "133.0797516343059",
        "mean_motion": ".4801129308220282",
        "equinox": "J2000",
        "orbit_class": {
            "orbit_class_type": "APO",
            "orbit_class_description": "Near-Earth asteroid orbits which cross the Earth’s orbit similar to that of 1862 Apollo",
            "orbit_class_range": "a (semi-major axis) > 1.0 AU; q (perihelion) < 1.017 AU"
        }
    },
    "is_sentry_object": false
}